[{"OBJECT_NAME":"KINEIS-1A","OBJECT_ID":"2024-114F","EPOCH":"2026-03-09T23:45:50.090112","MEAN_MOTION":14.80439392,"ECCENTRICITY":0.00048167,"INCLINATION":97.9936,"RA_OF_ASC_NODE":93.6517,"ARG_OF_PERICENTER":91.725,"MEAN_ANOMALY":268.4514,"EPHEMERIS_TYPE":0,"CLASSIFICATION_TYPE":"U","NORAD_CAT_ID":60084,"ELEMENT_SET_NO":999,"REV_AT_EPOCH":9271,"BSTAR":0.00016296213,"MEAN_MOTION_DOT":1.193e-5,"MEAN_MOTION_DDOT":0},{"OBJECT_NAME":"KUIPER-00114","OBJECT_ID":"2025-171V","EPOCH":"2026-03-09T12:33:46.702080","MEAN_MOTION":14.79936867,"ECCENTRICITY":8.503e-5,"INCLINATION":51.8993,"RA_OF_ASC_NODE":176.3385,"ARG_OF_PERICENTER":132.8626,"MEAN_ANOMALY":227.2408,"EPHEMERIS_TYPE":0,"CLASSIFICATION_TYPE":"U","NORAD_CAT_ID":65151,"ELEMENT_SET_NO":999,"REV_AT_EPOCH":3261,"BSTAR":0.0008099403,"MEAN_MOTION_DOT":5.959e-5,"MEAN_MOTION_DDOT":0}]
